{
    "links": {
        "self": "http://www.neowsapp.com/rest/v1/neo/3702676?api_key=iIulBulltgU6a56xZRHN4H3l9WmuAYTsLGpBGhQ2"
    },
    "id": "3702676",
    "neo_reference_id": "3702676",
    "name": "(2014 XD32)",
    "designation": "2014 XD32",
    "nasa_jpl_url": "http://ssd.jpl.nasa.gov/sbdb.cgi?sstr=3702676",
    "absolute_magnitude_h": 21.6,
    "estimated_diameter": {
        "kilometers": {
            "estimated_diameter_min": 0.1272198785,
            "estimated_diameter_max": 0.2844722965
        },
        "meters": {
            "estimated_diameter_min": 127.2198785394,
            "estimated_diameter_max": 284.4722965033
        },
        "miles": {
            "estimated_diameter_min": 0.0790507431,
            "estimated_diameter_max": 0.1767628354
        },
        "feet": {
            "estimated_diameter_min": 417.3880663071,
            "estimated_diameter_max": 933.3080892598
        }
    },
    "is_potentially_hazardous_asteroid": false,
    "close_approach_data": [
        {
            "close_approach_date": "2015-01-03",
            "close_approach_date_full": "2015-Jan-03 14:56",
            "epoch_date_close_approach": 1420296960000,
            "relative_velocity": {
                "kilometers_per_second": "13.7490689721",
                "kilometers_per_hour": "49496.6482994567",
                "miles_per_hour": "30755.2923836263"
            },
            "miss_distance": {
                "astronomical": "0.1974880491",
                "lunar": "76.8228510999",
                "kilometers": "29543791.495815417",
                "miles": "18357660.7794580746"
            },
            "orbiting_body": "Earth"
        }
    ],
    "orbital_data": {
        "orbit_id": "3",
        "orbit_determination_date": "2017-04-06 08:36:52",
        "first_observation_date": "2014-12-12",
        "last_observation_date": "2014-12-20",
        "data_arc_in_days": 8,
        "observations_used": 20,
        "orbit_uncertainty": "9",
        "minimum_orbit_intersection": ".116986",
        "jupiter_tisserand_invariant": "3.461",
        "epoch_osculation": "2457009.5",
        "eccentricity": ".6547767707138552",
        "semi_major_axis": "2.068428806145005",
        "inclination": "7.339288382442279",
        "ascending_node_longitude": "326.1478273290032",
        "orbital_period": "1086.573960217647",
        "perihelion_distance": ".7140696720058639",
        "perihelion_argument": "182.4053794611581",
        "aphelion_distance": "3.422787940284147",
        "perihelion_time": "2457054.647234819557",
        "mean_anomaly": "345.041971250825",
        "mean_motion": ".3313166090671727",
        "equinox": "J2000",
        "orbit_class": {
            "orbit_class_type": "APO",
            "orbit_class_description": "Near-Earth asteroid orbits which cross the Earth’s orbit similar to that of 1862 Apollo",
            "orbit_class_range": "a (semi-major axis) > 1.0 AU; q (perihelion) < 1.017 AU"
        }
    },
    "is_sentry_object": false
}